IRIDIUM 152             
1 43479U 18047D   26064.70488730  .00000091  00000+0  25403-4 0  9999
2 43479  86.3980 131.6083 0002242  92.8529 267.2924 14.34218074407658
IRIDIUM 147             
1 43480U 18047E   26064.71122431  .00000320  00000+0  10702-3 0  9995
2 43480  86.3984 131.6091 0002241  99.3628 260.7821 14.34220878407653
IRIDIUM 110             
1 43481U 18047F   26064.71757297  .00000008  00000+0 -42078-5 0  9997
2 43481  86.3989 131.6951 0002421  88.6656 271.4817 14.34217663407647
IRIDIUM 162             
1 43482U 18047G   26064.72107814  .00000440  00000+0  12475-3 0  9998
2 43482  86.4506 131.6335 0002096  92.2899 267.8542 14.43283760410209
IRIDIUM 160             
1 43569U 18061A   26064.59363948  .00000012  00000+0 -29099-5 0  9995
2 43569  86.3920 100.1304 0002377  92.1277 268.0191 14.34217863398526
IRIDIUM 166             
1 43570U 18061B   26064.96785173  .00000023  00000+0  12383-5 0  9995
2 43570  86.3921  99.9257 0002110  97.0091 263.1345 14.34217836398600
IRIDIUM 158             
1 43571U 18061C   26064.58729578  .00000125  00000+0  37713-4 0  9997
2 43571  86.3921 100.0951 0002125  89.5421 270.6018 14.34217981398516
IRIDIUM 165             
1 43572U 18061D   26064.96150896  .00000085  00000+0  23212-4 0  9995
2 43572  86.3919  99.9825 0002210  96.1336 264.0111 14.34218299398596
IRIDIUM 155             
1 43573U 18061E   26064.64437949  .00000025  00000+0  17186-5 0  9996
2 43573  86.3919  99.9890 0001951  94.3377 265.8042 14.34217852398513
IRIDIUM 154             
1 43574U 18061F   26064.62535851  .00000331  00000+0  11117-3 0  9992
2 43574  86.3922 100.1262 0002229  98.6818 261.4630 14.34222906398568
IRIDIUM 163             
1 43575U 18061G   26064.95516663  .00000082  00000+0  22298-4 0  9995
2 43575  86.3916  99.9065 0002164  91.3863 268.7581 14.34218306398582
IRIDIUM 156             
1 43576U 18061H   26064.65072203  .00000060  00000+0  14336-4 0  9990
2 43576  86.3918 100.0412 0002010  93.5584 266.5842 14.34218115398538
IRIDIUM 164             
1 43577U 18061J   26064.63169538  .00000289  00000+0  95956-4 0  9997
2 43577  86.3922 100.0880 0002329  97.6320 262.5141 14.34218119398575
IRIDIUM 159             
1 43578U 18061K   26064.59998236  .00000009  00000+0 -37448-5 0  9992
2 43578  86.3919 100.0397 0002276  91.5573 268.5883 14.34217670398535
IRIDIUM 180             
1 43922U 19002A   26064.94832121 -.00000005  00000+0 -88477-5 0  9995
2 43922  86.3962  36.7293 0002200  85.4129 274.7318 14.34217416374198
IRIDIUM 176             
1 43923U 19002B   26064.98401260  .00001261  00000+0  19602-3 0  9991
2 43923  86.6089  36.6717 0002435  89.3338 270.8158 14.72249351384068
IRIDIUM 168             
1 43924U 19002C   26064.94197376  .00000329  00000+0  11059-3 0  9990
2 43924  86.3965  36.8062 0002189  86.0370 274.1076 14.34214039374170
